{"type": "FeatureCollection", "features": [{"type": "Feature", "properties": {"norad_id": 22490, "name": "SCD 1", "group": "resource", "lat": -3.588306419190682, "lon": 27.757078504087882, "alt_km": 736.4467326492386, "timestamp": "2025-12-25T11:37:44.078043+00:00", "meta": {"OBJECT_NAME": "SCD 1", "OBJECT_ID": "1993-009B", "EPOCH": "2025-12-24T21:37:14.666016", "MEAN_MOTION": 14.46006798, "ECCENTRICITY": 0.004218, "INCLINATION": 24.9676, "RA_OF_ASC_NODE": 203.6132, "ARG_OF_PERICENTER": 93.4836, "MEAN_ANOMALY": 289.9521, "EPHEMERIS_TYPE": 0, "CLASSIFICATION_TYPE": "U", "NORAD_CAT_ID": 22490, "ELEMENT_SET_NO": 999, "REV_AT_EPOCH": 73586, "BSTAR": 8.1285e-05, "MEAN_MOTION_DOT": 4.83e-06, "MEAN_MOTION_DDOT": 0}, "tle": {"line1": "1 22490U 93009B   25358.90086419  .00000483  00000+0  81285-4 0  9990", "line2": "2 22490  24.9676 203.6132 0042180  93.4836 289.9521 14.46006798735868"}}, "geometry": {"type": "Point", "coordinates": [27.757078504087882, -3.588306419190682]}}, {"type": "Feature", "properties": {"norad_id": 25397, "name": "TECHSAT 1B (GO-32)", "group": "resource", "lat": -34.8716413629544, "lon": -10.672576102672364, "alt_km": 816.3729636774733, "timestamp": "2025-12-25T11:37:44.078071+00:00", "meta": {"OBJECT_NAME": "TECHSAT 1B (GO-32)", "OBJECT_ID": "1998-043D", "EPOCH": "2025-12-24T20:37:17.748480", "MEAN_MOTION": 14.24380271, "ECCENTRICITY": 0.00016683, "INCLINATION": 98.9932, "RA_OF_ASC_NODE": 342.3516, "ARG_OF_PERICENTER": 37.3772, "MEAN_ANOMALY": 322.7522, "EPHEMERIS_TYPE": 0, "CLASSIFICATION_TYPE": "U", "NORAD_CAT_ID": 25397, "ELEMENT_SET_NO": 999, "REV_AT_EPOCH": 42651, "BSTAR": 5.2942367e-05, "MEAN_MOTION_DOT": 7.6e-07, "MEAN_MOTION_DDOT": 0}, "tle": {"line1": "1 25397U 98043D   25358.85923320  .00000076  00000+0  52942-4 0  9993", "line2": "2 25397  98.9932 342.3516 0001668  37.3772 322.7522 14.24380271426515"}}, "geometry": {"type": "Point", "coordinates": [-10.672576102672364, -34.8716413629544]}}, {"type": "Feature", "properties": {"norad_id": 25504, "name": "SCD 2", "group": "resource", "lat": -5.717209252754176, "lon": -104.27799772109462, "alt_km": 742.6386741557953, "timestamp": "2025-12-25T11:37:44.078087+00:00", "meta": {"OBJECT_NAME": "SCD 2", "OBJECT_ID": "1998-060A", "EPOCH": "2025-12-24T13:48:55.433376", "MEAN_MOTION": 14.45429519, "ECCENTRICITY": 0.00170635, "INCLINATION": 24.9954, "RA_OF_ASC_NODE": 68.9145, "ARG_OF_PERICENTER": 78.1649, "MEAN_ANOMALY": 56.1547, "EPHEMERIS_TYPE": 0, "CLASSIFICATION_TYPE": "U", "NORAD_CAT_ID": 25504, "ELEMENT_SET_NO": 999, "REV_AT_EPOCH": 43503, "BSTAR": 7.2332367e-05, "MEAN_MOTION_DOT": 4.41e-06, "MEAN_MOTION_DDOT": 0}, "tle": {"line1": "1 25504U 98060A   25358.57564159  .00000441  00000+0  72332-4 0  9993", "line2": "2 25504  24.9954  68.9145 0017063  78.1649  56.1547 14.45429519435033"}}, "geometry": {"type": "Point", "coordinates": [-104.27799772109462, -5.717209252754176]}}, {"type": "Feature", "properties": {"norad_id": 25757, "name": "DLR-TUBSAT", "group": "resource", "lat": 24.25331318707069, "lon": -19.54421877654429, "alt_km": 723.6633939451822, "timestamp": "2025-12-25T11:37:44.078100+00:00", "meta": {"OBJECT_NAME": "DLR-TUBSAT", "OBJECT_ID": "1999-029B", "EPOCH": "2025-12-17T13:22:10.787520", "MEAN_MOTION": 14.52359578, "ECCENTRICITY": 0.00141996, "INCLINATION": 98.6566, "RA_OF_ASC_NODE": 336.2196, "ARG_OF_PERICENTER": 177.8976, "MEAN_ANOMALY": 182.2281, "EPHEMERIS_TYPE": 0, "CLASSIFICATION_TYPE": "U", "NORAD_CAT_ID": 25757, "ELEMENT_SET_NO": 999, "REV_AT_EPOCH": 40688, "BSTAR": 3.7650132e-05, "MEAN_MOTION_DOT": 1.05e-06, "MEAN_MOTION_DDOT": 0}, "tle": {"line1": "1 25757U 99029B   25351.55706930  .00000105  00000+0  37650-4 0  9996", "line2": "2 25757  98.6566 336.2196 0014199 177.8976 182.2281 14.52359578406886"}}, "geometry": {"type": "Point", "coordinates": [-19.54421877654429, 24.25331318707069]}}, {"type": "Feature", "properties": {"norad_id": 25994, "name": "TERRA", "group": "resource", "lat": 59.99697958455108, "lon": -115.25229735238852, "alt_km": 682.8530912764372, "timestamp": "2025-12-25T11:37:44.078112+00:00", "meta": {"OBJECT_NAME": "TERRA", "OBJECT_ID": "1999-068A", "EPOCH": "2025-12-25T03:06:27.762336", "MEAN_MOTION": 14.60915307, "ECCENTRICITY": 0.0003424, "INCLINATION": 97.9731, "RA_OF_ASC_NODE": 50.3583, "ARG_OF_PERICENTER": 69.8056, "MEAN_ANOMALY": 342.9325, "EPHEMERIS_TYPE": 0, "CLASSIFICATION_TYPE": "U", "NORAD_CAT_ID": 25994, "ELEMENT_SET_NO": 999, "REV_AT_EPOCH": 38419, "BSTAR": 0.00010684, "MEAN_MOTION_DOT": 4.78e-06, "MEAN_MOTION_DDOT": 0}, "tle": {"line1": "1 25994U 99068A   25359.12948799  .00000478  00000+0  10684-3 0  9994", "line2": "2 25994  97.9731  50.3583 0003424  69.8056 342.9325 14.60915307384197"}}, "geometry": {"type": "Point", "coordinates": [-115.25229735238852, 59.99697958455108]}}, {"type": "Feature", "properties": {"norad_id": 27004, "name": "MAROC-TUBSAT", "group": "resource", "lat": -78.60397323340531, "lon": -132.89577628117237, "alt_km": 996.6884769462322, "timestamp": "2025-12-25T11:37:44.078123+00:00", "meta": {"OBJECT_NAME": "MAROC-TUBSAT", "OBJECT_ID": "2001-056D", "EPOCH": "2025-12-25T00:19:12.920736", "MEAN_MOTION": 13.70253494, "ECCENTRICITY": 0.0019272, "INCLINATION": 99.7917, "RA_OF_ASC_NODE": 167.6734, "ARG_OF_PERICENTER": 227.5949, "MEAN_ANOMALY": 244.9475, "EPHEMERIS_TYPE": 0, "CLASSIFICATION_TYPE": "U", "NORAD_CAT_ID": 27004, "ELEMENT_SET_NO": 999, "REV_AT_EPOCH": 20233, "BSTAR": 2.6077e-05, "MEAN_MOTION_DOT": -2.4e-07, "MEAN_MOTION_DDOT": 0}, "tle": {"line1": "1 27004U 01056D   25359.01334399 -.00000024  00000+0  26077-4 0  9993", "line2": "2 27004  99.7917 167.6734 0019272 227.5949 244.9475 13.70253494202333"}}, "geometry": {"type": "Point", "coordinates": [-132.89577628117237, -78.60397323340531]}}, {"type": "Feature", "properties": {"norad_id": 27424, "name": "AQUA", "group": "resource", "lat": 35.319868664757095, "lon": -45.441834368524376, "alt_km": 684.5591936158935, "timestamp": "2025-12-25T11:37:44.078135+00:00", "meta": {"OBJECT_NAME": "AQUA", "OBJECT_ID": "2002-022A", "EPOCH": "2025-12-24T19:18:33.414624", "MEAN_MOTION": 14.61757572, "ECCENTRICITY": 0.00018094, "INCLINATION": 98.4055, "RA_OF_ASC_NODE": 319.881, "ARG_OF_PERICENTER": 102.1365, "MEAN_ANOMALY": 317.5475, "EPHEMERIS_TYPE": 0, "CLASSIFICATION_TYPE": "U", "NORAD_CAT_ID": 27424, "ELEMENT_SET_NO": 999, "REV_AT_EPOCH": 25779, "BSTAR": 0.00019560508, "MEAN_MOTION_DOT": 9.26e-06, "MEAN_MOTION_DDOT": 0}, "tle": {"line1": "1 27424U 02022A   25358.80455341  .00000926  00000+0  19561-3 0  9999", "line2": "2 27424  98.4055 319.8810 0001809 102.1365 317.5475 14.61757572257795"}}, "geometry": {"type": "Point", "coordinates": [-45.441834368524376, 35.319868664757095]}}, {"type": "Feature", "properties": {"norad_id": 28051, "name": "IRS-P6 (RESOURCESAT-1)", "group": "resource", "lat": 18.48588841833574, "lon": -137.93184003312246, "alt_km": 727.7218267732087, "timestamp": "2025-12-25T11:37:44.078145+00:00", "meta": {"OBJECT_NAME": "IRS-P6 (RESOURCESAT-1)", "OBJECT_ID": "2003-046A", "EPOCH": "2025-12-25T04:37:05.907072", "MEAN_MOTION": 14.36079665, "ECCENTRICITY": 0.0064904, "INCLINATION": 98.2158, "RA_OF_ASC_NODE": 39.0211, "ARG_OF_PERICENTER": 143.5208, "MEAN_ANOMALY": 308.1579, "EPHEMERIS_TYPE": 0, "CLASSIFICATION_TYPE": "U", "NORAD_CAT_ID": 28051, "ELEMENT_SET_NO": 999, "REV_AT_EPOCH": 15555, "BSTAR": 2.4426e-05, "MEAN_MOTION_DOT": 3.2e-07, "MEAN_MOTION_DDOT": 0}, "tle": {"line1": "1 28051U 03046A   25359.19242948  .00000032  00000+0  24426-4 0  9998", "line2": "2 28051  98.2158  39.0211 0064904 143.5208 308.1579 14.36079665155554"}}, "geometry": {"type": "Point", "coordinates": [-137.93184003312246, 18.48588841833574]}}, {"type": "Feature", "properties": {"norad_id": 28220, "name": "SHIYAN-1 (SY-1)", "group": "resource", "lat": -59.3686703136491, "lon": 75.32446355820336, "alt_km": 484.46304929276175, "timestamp": "2025-12-25T11:37:44.078156+00:00", "meta": {"OBJECT_NAME": "SHIYAN-1 (SY-1)", "OBJECT_ID": "2004-012A", "EPOCH": "2025-12-25T02:27:54.100800", "MEAN_MOTION": 15.28459772, "ECCENTRICITY": 0.0005104, "INCLINATION": 97.8918, "RA_OF_ASC_NODE": 61.3721, "ARG_OF_PERICENTER": 272.4584, "MEAN_ANOMALY": 87.607, "EPHEMERIS_TYPE": 0, "CLASSIFICATION_TYPE": "U", "NORAD_CAT_ID": 28220, "ELEMENT_SET_NO": 999, "REV_AT_EPOCH": 18445, "BSTAR": 0.00051189, "MEAN_MOTION_DOT": 0.00014115, "MEAN_MOTION_DDOT": 0}, "tle": {"line1": "1 28220U 04012A   25359.10270950  .00014115  00000+0  51189-3 0  9997", "line2": "2 28220  97.8918  61.3721 0005104 272.4584  87.6070 15.28459772184450"}}, "geometry": {"type": "Point", "coordinates": [75.32446355820336, -59.3686703136491]}}, {"type": "Feature", "properties": {"norad_id": 28376, "name": "AURA", "group": "resource", "lat": 51.095191174375415, "lon": 140.21908946526503, "alt_km": 684.5085968729936, "timestamp": "2025-12-25T11:37:44.078167+00:00", "meta": {"OBJECT_NAME": "AURA", "OBJECT_ID": "2004-026A", "EPOCH": "2025-12-25T02:49:34.504608", "MEAN_MOTION": 14.60974091, "ECCENTRICITY": 0.0001437, "INCLINATION": 98.3203, "RA_OF_ASC_NODE": 309.4031, "ARG_OF_PERICENTER": 90.848, "MEAN_ANOMALY": 269.2885, "EPHEMERIS_TYPE": 0, "CLASSIFICATION_TYPE": "U", "NORAD_CAT_ID": 28376, "ELEMENT_SET_NO": 999, "REV_AT_EPOCH": 14079, "BSTAR": 0.00023071, "MEAN_MOTION_DOT": 1.083e-05, "MEAN_MOTION_DDOT": 0}, "tle": {"line1": "1 28376U 04026A   25359.11776047  .00001083  00000+0  23071-3 0  9992", "line2": "2 28376  98.3203 309.4031 0001437  90.8480 269.2885 14.60974091140799"}}, "geometry": {"type": "Point", "coordinates": [140.21908946526503, 51.095191174375415]}}]}